NORAD_CAT_ID,OBJECT_NAME,OBJECT_TYPE,EPOCH,MEAN_MOTION,ECCENTRICITY,INCLINATION,RA_OF_ASC_NODE,ARG_OF_PERICENTER,MEAN_ANOMALY,BSTAR,MEAN_MOTION_DOT,MEAN_MOTION_DDOT,TLE_LINE0,TLE_LINE1,TLE_LINE2,SEMIMAJOR_AXIS,PERIOD,APOGEE,PERIGEE,DECAYED
52094.0,STARLINK-3714,PAYLOAD,2022-11-12 11:45:40,15.08841421,0.0001688,53.2182,135.3925,59.9732,300.1427,4.663e-05,4.54e-06,0.0,0 STARLINK-3714,1 52094U 22029G   22316.49004760  .00000454  00000-0  46630-4 0  9995,2 52094  53.2182 135.3925 0001688  59.9732 300.1427 15.08841421 37505,6917.876,95.437,540.909,538.573,0.0
52094.0,STARLINK-3714,PAYLOAD,2022-11-12 19:42:35,15.08844305,0.0001720999999999,53.2182,133.9057,59.6034,300.5128,5.8322e-05,6.4e-06,0.0,0 STARLINK-3714,1 52094U 22029G   22316.82124522  .00000640  00000-0  58322-4 0  9999,2 52094  53.2182 133.9057 0001721  59.6034 300.5128 15.08844305 37556,6917.8669999999975,95.437,540.923,538.5419999999998,0.0
52094.0,STARLINK-3714,PAYLOAD,2022-11-13 05:14:54,15.08847728,0.0001679,53.2183,132.1219,62.2378,297.8784,8.018e-05,9.88e-06,0.0,0 STARLINK-3714,1 52094U 22029G   22317.21868161  .00000988  00000-0  80180-4 0  9999,2 52094  53.2183 132.1219 0001679  62.2378 297.8784 15.08847728 37616,6917.857,95.437,540.883,538.56,0.0
52094.0,STARLINK-3714,PAYLOAD,2022-11-13 11:36:25,15.08871819,0.0001776,53.2183,130.9323,59.4173,300.6994,-0.00035439,-5.929e-05,0.0,0 STARLINK-3714,1 52094U 22029G   22317.48363055 -.00005929  00000-0 -35439-3 0  9998,2 52094  53.2183 130.9323 0001776  59.4173 300.6994 15.08871819 37655,6917.783,95.436,540.877,538.42,0.0
52094.0,STARLINK-3714,PAYLOAD,2022-11-13 17:57:59,15.08835457,0.0001839,53.219,129.7425,60.9541,299.1635,6.550100000000001e-05,7.54e-06,0.0,0 STARLINK-3714,1 52094U 22029G   22317.74860965  .00000754  00000-0  65501-4 0  9992,2 52094  53.2190 129.7425 0001839  60.9541 299.1635 15.08835457 37694,6917.894,95.438,541.031,538.487,0.0
52094.0,STARLINK-3714,PAYLOAD,2022-11-14 11:27:14,15.08839749,0.0001818,53.2185,126.4714,60.4318,299.6855,5.6082e-05,6.05e-06,0.0,0 STARLINK-3714,1 52094U 22029G   22318.47724844  .00000605  00000-0  56082-4 0  9997,2 52094  53.2185 126.4714 0001818  60.4318 299.6855 15.08839749 37807,6917.880999999999,95.438,541.004,538.488,0.0
52094.0,STARLINK-3714,PAYLOAD,2022-11-14 17:48:46,15.08848515,0.0001872,53.2182,125.2819,60.0796,300.0382,-2.0458e-05,-6.14e-06,0.0,0 STARLINK-3714,1 52094U 22029G   22318.74220354 -.00000614  00000-0 -20458-4 0  9994,2 52094  53.2182 125.2819 0001872  60.0796 300.0382 15.08848515 37840,6917.854,95.437,541.014,538.424,0.0
52094.0,STARLINK-3714,PAYLOAD,2022-11-15 11:18:01,15.08840578,0.0001751,53.2181,122.0112,57.685,302.4312,9.053e-05,1.153e-05,0.0,0 STARLINK-3714,1 52094U 22029G   22319.47084511  .00001153  00000-0  90530-4 0  9993,2 52094  53.2181 122.0112 0001751  57.6850 302.4312 15.08840578 37951,6917.879,95.438,540.955,538.5319999999998,0.0
52094.0,STARLINK-3714,PAYLOAD,2022-11-15 17:39:34,15.08833526,0.0001748,53.2182,120.822,56.6118,303.5041,5.9009e-05,6.51e-06,0.0,0 STARLINK-3714,1 52094U 22029G   22319.73581117  .00000651  00000-0  59009-4 0  9994,2 52094  53.2182 120.8220 0001748  56.6118 303.5041 15.08833526 37990,6917.9,95.438,540.974,538.556,0.0
52094.0,STARLINK-3714,PAYLOAD,2022-11-16 14:19:34,15.08839804,0.0001779,53.2181,116.9565,57.3863,302.7301,2.8035e-05,1.58e-06,0.0,0 STARLINK-3714,1 52094U 22029G   22320.59692961  .00000158  00000-0  28035-4 0  9997,2 52094  53.2181 116.9565 0001779  57.3863 302.7301 15.08839804 38127,6917.880999999999,95.438,540.977,538.515,0.0
52094.0,STARLINK-3714,PAYLOAD,2022-11-16 17:30:20,15.08840378,0.0001686999999999,53.2184,116.3618,41.7826,318.3295,5.1002e-05,5.24e-06,0.0,0 STARLINK-3714,1 52094U 22029G   22320.72940834  .00000524  00000-0  51002-4 0  9994,2 52094  53.2184 116.3618 0001687  41.7826 318.3295 15.08840378 38142,6917.879,95.438,540.911,538.577,0.0
52094.0,STARLINK-3714,PAYLOAD,2022-11-17 03:02:39,15.08837479,0.0001719,53.2186,114.5775,58.1536,301.9624,-7.2972e-06,-4.04e-06,0.0,0 STARLINK-3714,1 52094U 22029G   22321.12685143 -.00000404  00000-0 -72972-5 0  9997,2 52094  53.2186 114.5775 0001719  58.1536 301.9624 15.08837479 38203,6917.888000000001,95.438,540.942,538.564,0.0
52094.0,STARLINK-3714,PAYLOAD,2022-11-17 10:59:36,15.08823572,0.0001648,53.2184,113.0908,58.2662,301.8491,-1.9892e-05,-6.04e-06,0.0,0 STARLINK-3714,1 52094U 22029G   22321.45806204 -.00000604  00000-0 -19892-4 0  9999,2 52094  53.2184 113.0908 0001648  58.2662 301.8491 15.08823572 38250,6917.931,95.439,540.936,538.656,0.0
52094.0,STARLINK-3714,PAYLOAD,2022-11-17 12:34:59,15.0882282,0.0001643,53.2183,112.7932,57.7393,302.3759,-2.8348e-05,-7.39e-06,0.0,0 STARLINK-3714,1 52094U 22029G   22321.52430313 -.00000739  00000-0 -28348-4 0  9996,2 52094  53.2183 112.7932 0001643  57.7393 302.3759 15.08822820 38261,6917.933000000001,95.439,540.935,538.661,0.0
52094.0,STARLINK-3714,PAYLOAD,2022-11-17 14:10:22,15.08822974,0.0001646,53.2183,112.4959,57.5321,302.583,-2.9633e-05,-7.59e-06,0.0,0 STARLINK-3714,1 52094U 22029G   22321.59054331 -.00000759  00000-0 -29633-4 0  9995,2 52094  53.2183 112.4959 0001646  57.5321 302.5830 15.08822974 38272,6917.932,95.439,540.936,538.659,0.0
52094.0,STARLINK-3714,PAYLOAD,2022-11-18 10:50:23,15.08832145,0.000168,53.2185,108.6301,57.9378,302.1777,-1.947e-05,-5.98e-06,0.0,0 STARLINK-3714,1 52094U 22029G   22322.45166387 -.00000598  00000-0 -19470-4 0  9995,2 52094  53.2185 108.6301 0001680  57.9378 302.1777 15.08832145 38408,6917.904,95.438,540.932,538.607,0.0
52094.0,STARLINK-3714,PAYLOAD,2022-11-19 09:05:47,15.08835234,0.0001708,53.2188,104.4664,57.7307,302.385,0.00013984,1.938e-05,0.0,0 STARLINK-3714,1 52094U 22029G   22323.37902039  .00001938  00000-0  13984-3 0  9999,2 52094  53.2188 104.4664 0001708  57.7307 302.3850 15.08835234 38549,6917.895,95.438,540.942,538.578,0.0
52094.0,STARLINK-3714,PAYLOAD,2022-11-19 18:38:05,15.08841342,0.0001730999999999,53.2187,102.6831,58.5997,301.5165,0.00019554,2.825e-05,0.0,0 STARLINK-3714,1 52094U 22029G   22323.77645463  .00002825  00000-0  19554-3 0  9993,2 52094  53.2187 102.6831 0001731  58.5997 301.5165 15.08841342 38608,6917.876,95.437,540.939,538.544,0.0
52094.0,STARLINK-3714,PAYLOAD,2022-11-20 02:35:00,15.08848489,0.0001721999999999,53.2186,101.1963,59.1546,300.9615,0.00020183,2.926e-05,0.0,0 STARLINK-3714,1 52094U 22029G   22324.10764911  .00002926  00000-0  20183-3 0  9993,2 52094  53.2186 101.1963 0001722  59.1546 300.9615 15.08848489 38651,6917.854,95.437,540.911,538.528,0.0
52094.0,STARLINK-3714,PAYLOAD,2022-11-20 08:56:33,15.08847818,0.0001917,53.2157,100.007,62.8642,297.2545,0.00016902,2.403e-05,0.0,0 STARLINK-3714,1 52094U 22029G   22324.37261061  .00002403  00000-0  16902-3 0  9994,2 52094  53.2157 100.0070 0001917  62.8642 297.2545 15.08847818 38699,6917.856,95.437,541.048,538.395,0.0
52094.0,STARLINK-3714,PAYLOAD,2022-11-20 16:53:29,15.08843726,0.0001652,53.2186,98.5206,59.3955,300.72,5.8412e-05,6.42e-06,0.0,0 STARLINK-3714,1 52094U 22029G   22324.70381531  .00000642  00000-0  58412-4 0  9992,2 52094  53.2186  98.5206 0001652  59.3955 300.7200 15.08843726 38745,6917.869000000002,95.437,540.877,538.591,0.0
52094.0,STARLINK-3714,PAYLOAD,2022-11-21 08:47:20,15.08847848,0.0001774999999999,53.219,95.5472,61.2708,298.8463,-8.1849e-06,-4.18e-06,0.0,0 STARLINK-3714,1 52094U 22029G   22325.36621261 -.00000418  00000-0 -81849-5 0  9996,2 52094  53.2190  95.5472 0001775  61.2708 298.8463 15.08847848 38844,6917.856,95.437,540.9490000000002,538.493,0.0
52094.0,STARLINK-3714,PAYLOAD,2022-11-21 18:19:39,15.08849079,0.0001574,53.2191,93.7621,58.2059,301.9086,-2.6573e-05,-7.11e-06,0.0,0 STARLINK-3714,1 52094U 22029G   22325.76365002 -.00000711  00000-0 -26573-4 0  9996,2 52094  53.2191  93.7621 0001574  58.2059 301.9086 15.08849079 38905,6917.853,95.437,540.807,538.629,0.0
52094.0,STARLINK-3714,PAYLOAD,2022-11-22 11:48:52,15.08896006,0.0001956,53.2192,90.4914,54.2429,305.8745,-0.00068638,-0.00011212,0.0,0 STARLINK-3714,1 52094U 22029G   22326.49227449 -.00011212  00000-0 -68638-3 0  9994,2 52094  53.2192  90.4914 0001956  54.2429 305.8745 15.08896006 39016,6917.709,95.434,540.927,538.221,0.0
52094.0,STARLINK-3714,PAYLOAD,2022-11-22 14:59:40,15.08842347,0.0001582,53.2191,89.8968,56.5684,303.5459,-1.1493e-05,-4.71e-06,0.0,0 STARLINK-3714,1 52094U 22029G   22326.62476922 -.00000471  00000-0 -11493-4 0  9994,2 52094  53.2191  89.8968 0001582  56.5684 303.5459 15.08842347 39037,6917.873000000001,95.437,540.8330000000002,538.644,0.0
52094.0,STARLINK-3714,PAYLOAD,2022-11-23 08:28:54,15.08837799,0.0001589,53.2194,86.626,54.4713,305.6427,-1.1977e-05,-4.79e-06,0.0,0 STARLINK-3714,1 52094U 22029G   22327.35341185 -.00000479  00000-0 -11977-4 0  9992,2 52094  53.2194  86.6260 0001589  54.4713 305.6427 15.08837799 39142,6917.887,95.438,540.851,538.653,0.0
52094.0,STARLINK-3714,PAYLOAD,2022-11-23 18:01:13,15.08838338,0.0001613,53.2196,84.84200000000001,54.5043,305.6099,-5.558099999999999e-06,-3.76e-06,0.0,0 STARLINK-3714,1 52094U 22029G   22327.75085159 -.00000376  00000-0 -55581-5 0  9998,2 52094  53.2196  84.8420 0001613  54.5043 305.6099 15.08838338 39209,6917.885,95.438,540.866,538.635,0.0
52094.0,STARLINK-3714,PAYLOAD,2022-11-24 08:19:42,15.08830408,0.0001585,53.2199,82.1673,49.9906,310.1226,-2.6252e-05,-7.06e-06,0.0,0 STARLINK-3714,1 52094U 22029G   22328.34701671 -.00000706  00000-0 -26252-4 0  9997,2 52094  53.2199  82.1673 0001585  49.9906 310.1226 15.08830408 39299,6917.91,95.438,540.871,538.678,0.0
52094.0,STARLINK-3714,PAYLOAD,2022-11-24 13:05:51,15.08831658,0.0001669,53.2193,81.2753,45.9346,314.1784,-1.1909e-05,-4.78e-06,0.0,0 STARLINK-3714,1 52094U 22029G   22328.54573669 -.00000478  00000-0 -11909-4 0  9992,2 52094  53.2193  81.2753 0001669  45.9346 314.1784 15.08831658 39324,6917.906,95.438,540.925,538.616,0.0
